[{"OBJECT_NAME":"ICEYE-X52","OBJECT_ID":"2025-135AW","EPOCH":"2026-03-09T23:17:36.118752","MEAN_MOTION":14.93134206,"ECCENTRICITY":9.039e-5,"INCLINATION":97.7612,"RA_OF_ASC_NODE":184.413,"ARG_OF_PERICENTER":329.011,"MEAN_ANOMALY":31.1056,"EPHEMERIS_TYPE":0,"CLASSIFICATION_TYPE":"U","NORAD_CAT_ID":64572,"ELEMENT_SET_NO":999,"REV_AT_EPOCH":3907,"BSTAR":0.00030081432,"MEAN_MOTION_DOT":3.081e-5,"MEAN_MOTION_DDOT":0},{"OBJECT_NAME":"BIFROST-DNK","OBJECT_ID":"2025-135BN","EPOCH":"2026-03-09T21:47:05.760384","MEAN_MOTION":14.94084434,"ECCENTRICITY":0.000349,"INCLINATION":97.761,"RA_OF_ASC_NODE":184.6338,"ARG_OF_PERICENTER":330.8145,"MEAN_ANOMALY":29.288,"EPHEMERIS_TYPE":0,"CLASSIFICATION_TYPE":"U","NORAD_CAT_ID":64588,"ELEMENT_SET_NO":999,"REV_AT_EPOCH":3908,"BSTAR":0.00037926768,"MEAN_MOTION_DOT":3.996e-5,"MEAN_MOTION_DDOT":0}]
